{"type":"FeatureCollection","features":[
{"type":"Feature","geometry":{"type":"MultiPolygon","coordinates":[[[[19.5563618,45.2371591],[19.5563619,45.2371578],[19.5564543,45.235718],[19.5564543,45.2357169],[19.5564545,45.2357165],[19.5577326,45.2328961],[19.558446,45.2320781],[19.5612197,45.2261242],[19.562163,45.2250194],[19.5624149,45.2248477],[19.5629768,45.2242651],[19.5633564,45.2235468],[19.5658511,45.2205326],[19.5679916,45.2183902],[19.5687709,45.2178407],[19.5698045,45.2173923],[19.5711361,45.216533],[19.573334,45.2153968],[19.5740897,45.215034],[19.5740906,45.2150336],[19.5748237,45.2146818],[19.5763608,45.2138811],[19.5789352,45.2130159],[19.581693,45.2124228],[19.5883456,45.2120231],[19.5924015,45.2121988],[19.6041375,45.2139273],[19.609661,45.2158377],[19.6159336,45.217748],[19.6215925,45.2195101],[19.6288514,45.2206895],[19.628855,45.2206901],[19.6287972,45.2209216],[19.631301,45.2212739],[19.6325241,45.2215494],[19.6325244,45.2215495],[19.6380987,45.2214993],[19.6381003,45.2214993],[19.6412409,45.2215817],[19.6423506,45.2217155],[19.6448392,45.2217505],[19.644843,45.2217506],[19.6494215,45.2220894],[19.6525373,45.2222535],[19.6563075,45.2225305],[19.6603717,45.222924],[19.6628213,45.2232659],[19.6663994,45.2239755],[19.6673314,45.2240222],[19.6673343,45.2240224],[19.6707214,45.2236452],[19.6725148,45.2235762],[19.6725159,45.2235761],[19.6734542,45.2236067],[19.6734576,45.2236069],[19.6758719,45.2232536],[19.6758738,45.2232533],[19.6772917,45.2235001],[19.6779727,45.2236427],[19.6801342,45.2240954],[19.6820548,45.2243587],[19.6833283,45.2244103],[19.6870279,45.2251133],[19.689761,45.2255451],[19.692177,45.2258804],[19.6921779,45.2258805],[19.6934433,45.2258427],[19.6948681,45.2257393],[19.6959908,45.2257071],[19.6961605,45.2267475],[19.6975196,45.2269529],[19.6984361,45.2273052],[19.6993509,45.2277296],[19.7011715,45.2283612],[19.7019124,45.2286522],[19.7025621,45.2288638],[19.7041004,45.2293671],[19.7054289,45.2297466],[19.7067905,45.2299618],[19.7070848,45.230011],[19.707831,45.2301274],[19.7091386,45.2303041],[19.7115003,45.2310614],[19.7120596,45.231164],[19.7134148,45.2312125],[19.715295,45.231185],[19.7165209,45.2309828],[19.7182062,45.230621],[19.7194785,45.2303347],[19.7206105,45.2301691],[19.7242623,45.2295602],[19.7261051,45.229326],[19.7282625,45.2290828],[19.7295808,45.2288977],[19.7365173,45.227102],[19.7392586,45.2264798],[19.7410809,45.2261894],[19.7421082,45.2261119],[19.7436192,45.2260813],[19.7442072,45.226141],[19.7450714,45.2262136],[19.7460286,45.2261989],[19.7468776,45.2262584],[19.7470177,45.2262706],[19.7624779,45.2262067],[19.7813217,45.2249739],[19.7800956,45.2225392],[19.779281,45.2209296],[19.7785363,45.2194476],[19.7783849,45.2191481],[19.7776427,45.2176733],[19.7771333,45.2166598],[19.7773324,45.2162061],[19.7774115,45.2159914],[19.7774252,45.2158368],[19.7775292,45.2157652],[19.7777378,45.2151685],[19.7783369,45.2151677],[19.7783584,45.2151386],[19.7785535,45.2148878],[19.778581,45.2148539],[19.7789478,45.2143772],[19.7789949,45.2143183],[19.779196,45.2140653],[19.7795282,45.2135747],[19.7796332,45.213427],[19.7796915,45.2133449],[19.7798853,45.2131555],[19.7801542,45.2128432],[19.7807027,45.2121401],[19.7810918,45.2116424],[19.7811716,45.2115633],[19.7811716,45.2115288],[19.781205,45.2114442],[19.7812696,45.2113067],[19.7813005,45.2112181],[19.7813026,45.211072],[19.7812856,45.2107081],[19.7812441,45.2104217],[19.7812076,45.2103155],[19.7812061,45.210105],[19.7811984,45.2098775],[19.7812304,45.2097624],[19.7812512,45.2095861],[19.7812261,45.2094924],[19.7812578,45.2092982],[19.7813326,45.2091888],[19.7817838,45.2087589],[19.7818688,45.2086162],[19.7820437,45.2084628],[19.7820473,45.2083087],[19.7821335,45.2080307],[19.7820791,45.2078967],[19.7821185,45.2077725],[19.7823196,45.2076735],[19.7824552,45.2075456],[19.782504,45.2074015],[19.7824534,45.2072419],[19.7825539,45.207049],[19.7825096,45.206703],[19.7824874,45.206573],[19.78259,45.2064377],[19.7829495,45.2062591],[19.7831626,45.2061066],[19.7831592,45.2059303],[19.7831554,45.2057275],[19.783142,45.2054138],[19.783044,45.2050576],[19.7828886,45.204628],[19.782656,45.2040514],[19.7826354,45.2034425],[19.7833973,45.2020144],[19.78344,45.2011016],[19.7835276,45.2007081],[19.7834425,45.2005993],[19.7829351,45.2004467],[19.7826115,45.2002925],[19.7824169,45.2001401],[19.7820957,45.1997994],[19.7820299,45.1994958],[19.7821989,45.1992462],[19.7822734,45.1988852],[19.7822489,45.1988072],[19.7821718,45.1986702],[19.7821662,45.1985604],[19.7821875,45.1984246],[19.7822004,45.1978753],[19.7822122,45.1975092],[19.7822217,45.1973533],[19.7822796,45.1972386],[19.7823235,45.197097],[19.7823047,45.1968804],[19.7823613,45.1966562],[19.7822129,45.1961194],[19.7821683,45.1960831],[19.7820522,45.1960103],[19.7820456,45.1959404],[19.7820808,45.1958373],[19.7820443,45.195818],[19.7821098,45.1958052],[19.7821409,45.1958564],[19.7822532,45.1958916],[19.7823858,45.1959738],[19.7825699,45.19606],[19.7828212,45.1961672],[19.7831542,45.1963445],[19.7832608,45.1963756],[19.7834301,45.1963912],[19.7837398,45.1963364],[19.7841236,45.1963655],[19.7843304,45.1963825],[19.7845825,45.196433],[19.7846715,45.1964744],[19.7849318,45.1967422],[19.7850931,45.1968111],[19.7851417,45.1968205],[19.785185,45.1968328],[19.7851819,45.196681],[19.7852195,45.1964433],[19.7852215,45.1961786],[19.7852084,45.1960612],[19.7851536,45.1958738],[19.7851704,45.1958315],[19.7852316,45.1958177],[19.7855487,45.1957434],[19.7862787,45.1956259],[19.7871649,45.1955225],[19.7873143,45.1954879],[19.7873994,45.195454],[19.7874457,45.1954013],[19.7874502,45.1953384],[19.7874528,45.1952357],[19.7875981,45.1950081],[19.7876628,45.1948385],[19.7877932,45.1947559],[19.7879769,45.1946759],[19.7881486,45.1946197],[19.7885529,45.194546],[19.7889562,45.1943932],[19.7891474,45.1945899],[19.789222,45.1945496],[19.7893087,45.1945031],[19.7902119,45.1942381],[19.7906465,45.194075],[19.790534,45.1938901],[19.7909546,45.193766],[19.791003,45.1938208],[19.7911177,45.1937664],[19.7911762,45.1938241],[19.7912321,45.193826],[19.7915769,45.1937245],[19.7920617,45.1935639],[19.7931947,45.1932613],[19.7939324,45.1930554],[19.7940025,45.1931345],[19.7946298,45.1930255],[19.7951208,45.1933289],[19.7954872,45.1930403],[19.7958045,45.1928219],[19.7959991,45.1927422],[19.7961672,45.1926617],[19.796333,45.1926005],[19.7965505,45.1925292],[19.7966598,45.1925036],[19.7967342,45.1924671],[19.7968356,45.1923905],[19.7968714,45.1923575],[19.7968319,45.192338],[19.7969181,45.1922868],[19.7970406,45.1922545],[19.797224,45.1922267],[19.7973307,45.1922049],[19.7975153,45.1921077],[19.7976095,45.1919883],[19.7977087,45.1919031],[19.7977769,45.1917553],[19.7977696,45.1915352],[19.797725,45.1913561],[19.7980527,45.191192],[19.7980287,45.1908565],[19.7980193,45.190727],[19.7979031,45.1906071],[19.7979629,45.1904548],[19.7979739,45.1903255],[19.7978993,45.1901648],[19.7977549,45.1900267],[19.7976869,45.1898451],[19.7976812,45.189691],[19.7975471,45.1895647],[19.7974463,45.189367],[19.7972978,45.1892761],[19.7972001,45.1892248],[19.7970945,45.1890558],[19.7970541,45.1890519],[19.796851,45.189053],[19.7967185,45.1890442],[19.7966128,45.1889668],[19.7965146,45.1887994],[19.7963905,45.1886433],[19.7962299,45.1884691],[19.7960518,45.18819],[19.7959192,45.1880008],[19.7958153,45.187938],[19.7957485,45.1878654],[19.7957375,45.1878204],[19.7958414,45.1877254],[19.7957964,45.1876596],[19.7956985,45.1876155],[19.7955506,45.1874986],[19.7954007,45.1874321],[19.7951041,45.1873886],[19.7950514,45.1873094],[19.7950598,45.1872273],[19.7949925,45.1871732],[19.7948891,45.1871327],[19.7947087,45.1870245],[19.7945626,45.1869613],[19.7944306,45.1868748],[19.7944457,45.1867775],[19.7942763,45.1866839],[19.7942347,45.1865615],[19.7942802,45.1864455],[19.7942527,45.186269],[19.7941395,45.1861138],[19.7941443,45.186023],[19.7941041,45.1859796],[19.793887,45.1858867],[19.793774,45.1857481],[19.7937241,45.1857674],[19.7935955,45.1857681],[19.7934322,45.18555],[19.7933472,45.1853776],[19.7931819,45.1853007],[19.7931127,45.185165],[19.7928786,45.1850095],[19.7928947,45.184982],[19.7928531,45.1849284],[19.7927789,45.1849082],[19.7926424,45.1848051],[19.7926088,45.18462],[19.792579,45.1845578],[19.7924943,45.1845095],[19.7924395,45.184465],[19.792295,45.184459],[19.7921571,45.184386],[19.7921803,45.1842593],[19.7920686,45.1840057],[19.7921182,45.1837422],[19.7922688,45.1833591],[19.7921803,45.1830549],[19.7921286,45.1829685],[19.7920519,45.182907],[19.7920405,45.1828311],[19.7921196,45.1827373],[19.7920961,45.1826211],[19.7921657,45.1825336],[19.7923951,45.1824435],[19.7924701,45.1823624],[19.792485,45.182195],[19.7925419,45.1821346],[19.7926494,45.1821023],[19.7927326,45.1820175],[19.7927523,45.1819058],[19.7927307,45.1817922],[19.7925527,45.1816043],[19.7924226,45.1814723],[19.7923141,45.1813386],[19.7923006,45.1812187],[19.7923136,45.1810081],[19.792225,45.1808087],[19.7921834,45.1806732],[19.7919247,45.1805747],[19.7918768,45.1804892],[19.7919048,45.1803419],[19.7918602,45.1802617],[19.7917688,45.1801892],[19.7917614,45.1800143],[19.7918058,45.1799397],[19.7918117,45.1798726],[19.7916933,45.1797544],[19.7915832,45.1797081],[19.7915392,45.1796702],[19.7915334,45.1794724],[19.7913889,45.1793135],[19.7911471,45.1790065],[19.7910327,45.1788906],[19.7907492,45.1787158],[19.7906502,45.1786505],[19.7905617,45.1784141],[19.7904353,45.1783149],[19.7901672,45.1782902],[19.7900752,45.1782294],[19.7899091,45.1780725],[19.7898639,45.1779581],[19.7895385,45.1777783],[19.7895227,45.1777473],[19.7895569,45.1776994],[19.7895342,45.177673],[19.7891208,45.1774836],[19.7889747,45.1773409],[19.7889336,45.1772437],[19.7886927,45.1771008],[19.7885093,45.1770057],[19.7883224,45.1769335],[19.7882275,45.1768119],[19.7881662,45.1766888],[19.7881735,45.1766262],[19.7881095,45.1766078],[19.788028,45.1765213],[19.7881022,45.176437],[19.788125,45.1763928],[19.7879576,45.1762686],[19.7877879,45.1762363],[19.7876369,45.1761796],[19.7875043,45.1760174],[19.787369,45.175907],[19.7872733,45.1758872],[19.7872281,45.1758763],[19.7868769,45.175792],[19.7865557,45.1757502],[19.7862841,45.1757181],[19.7860718,45.1756168],[19.7861165,45.175463],[19.7859758,45.1753563],[19.7856884,45.1750209],[19.7855723,45.1749995],[19.7852629,45.1749253],[19.7850854,45.1748098],[19.7848868,45.174617],[19.7845033,45.1744713],[19.7843897,45.1743984],[19.7842999,45.1742035],[19.784148,45.1740418],[19.7840021,45.1739825],[19.7838687,45.1738819],[19.7836827,45.1735972],[19.7834724,45.1733914],[19.7833152,45.1731378],[19.783252,45.1728694],[19.7832431,45.1725678],[19.7831696,45.1724157],[19.7832752,45.1719999],[19.7833665,45.1716517],[19.7830602,45.1710939],[19.7830381,45.1709405],[19.7830893,45.1706297],[19.7831258,45.1704253],[19.7830656,45.1702943],[19.7830932,45.1702073],[19.7832092,45.1700228],[19.7831953,45.169907],[19.7832967,45.1697893],[19.783808,45.16956],[19.7838993,45.1695255],[19.7842301,45.1666834],[19.7842304,45.1666397],[19.7842733,45.1662688],[19.784278,45.1662325],[19.7843751,45.1654038],[19.7844966,45.1643116],[19.7846399,45.1635084],[19.7846652,45.1633639],[19.7848128,45.1625338],[19.784847,45.162276],[19.7852223,45.1601343],[19.7852447,45.1600015],[19.7853291,45.1595239],[19.7853364,45.1594611],[19.7853867,45.1591539],[19.7854603,45.1589725],[19.7857485,45.1587577],[19.7863377,45.1583699],[19.7868439,45.158143],[19.7874729,45.1579236],[19.7878762,45.1578166],[19.789086,45.1576683],[19.789606,45.1576082],[19.790324,45.1575252],[19.7913358,45.1574082],[19.7924775,45.1570397],[19.7926144,45.157012],[19.7932261,45.1569423],[19.7944947,45.1571801],[19.794514,45.1571837],[19.7945263,45.15718],[19.7952161,45.1569692],[19.7954729,45.1568907],[19.7956555,45.1568349],[19.7957409,45.1568508],[19.7957736,45.1568568],[19.7973908,45.1571574],[19.7974195,45.1571627],[19.7980177,45.1570581],[19.7981967,45.1570268],[19.7984246,45.1570783],[19.7986224,45.157123],[19.7992646,45.1572682],[19.7997053,45.1573678],[19.7999467,45.1572599],[19.8002097,45.1571423],[19.8004206,45.156995],[19.8010459,45.1566394],[19.8011845,45.1566408],[19.8013091,45.1566322],[19.8017591,45.1565937],[19.8018859,45.1566696],[19.8033452,45.1567168],[19.8041608,45.1564571],[19.804367,45.156399],[19.8048822,45.1562843],[19.8052303,45.1562531],[19.8063531,45.1562833],[19.8072439,45.1561732],[19.808695,45.156068],[19.8089785,45.1559996],[19.8092225,45.1558756],[19.809407,45.1557726],[19.8097891,45.1555629],[19.809988,45.1554221],[19.8102249,45.1552054],[19.8104602,45.1549711],[19.8107128,45.1547927],[19.8109865,45.1546491],[19.8112357,45.1546413],[19.811768,45.1546912],[19.8124413,45.1547896],[19.8132639,45.1548192],[19.8134382,45.1548927],[19.813445,45.1548956],[19.8134725,45.1548928],[19.8136859,45.1548705],[19.813711,45.1548679],[19.8137181,45.1548642],[19.8142485,45.1545867],[19.8147207,45.154317],[19.8149638,45.154027],[19.8151024,45.153914],[19.8152449,45.1538029],[19.815482,45.1535472],[19.8155985,45.153478],[19.8160069,45.1532743],[19.8161666,45.1531809],[19.8162555,45.1531289],[19.8163142,45.1530945],[19.8163188,45.1530935],[19.8163552,45.1530853],[19.8164419,45.1530657],[19.8166022,45.1530296],[19.8168494,45.1529739],[19.8172128,45.152892],[19.8175473,45.1527575],[19.8175729,45.152751],[19.8179353,45.1526585],[19.8180083,45.1526398],[19.8180837,45.1526366],[19.818802,45.1526056],[19.8188876,45.1526019],[19.8189815,45.1526422],[19.8193055,45.1527814],[19.8193056,45.1527814],[19.8193502,45.1528006],[19.819353,45.1528031],[19.8193584,45.1528078],[19.8194443,45.1528824],[19.8195905,45.1529629],[19.8195938,45.1529648],[19.8195969,45.1529661],[19.8199104,45.1531065],[19.8199105,45.1531065],[19.8199261,45.1531135],[19.8199305,45.1531142],[19.8199837,45.1531233],[19.8201744,45.1531559],[19.8202782,45.1531737],[19.8204651,45.153213],[19.8206811,45.15324],[19.8209348,45.1533086],[19.8210597,45.1533742],[19.8217429,45.1537328],[19.8218748,45.1536688],[19.8219101,45.1536908],[19.8221508,45.1535729],[19.8221958,45.1535402],[19.8222667,45.1534888],[19.8225812,45.153013],[19.8226504,45.1529729],[19.8227154,45.1528822],[19.8227176,45.1528791],[19.8228169,45.1527405],[19.8228204,45.1527348],[19.8230269,45.1523972],[19.8231092,45.1522334],[19.8232307,45.151171],[19.8233522,45.1507461],[19.8236272,45.1503497],[19.8238598,45.1500809],[19.8241137,45.1498509],[19.8243085,45.1497564],[19.8246107,45.149733],[19.8251035,45.1498384],[19.8253287,45.1498524],[19.8255182,45.1498431],[19.8258574,45.1497859],[19.8258935,45.1497798],[19.8258943,45.1497797],[19.8259249,45.1497778],[19.8259256,45.1497778],[19.8259264,45.1497777],[19.826279,45.1497562],[19.8263213,45.1497593],[19.8264397,45.1497679],[19.8267581,45.1498516],[19.827069,45.1498906],[19.8270694,45.1498907],[19.8270856,45.1498927],[19.82709,45.1498931],[19.827559,45.1499343],[19.8278625,45.1499298],[19.8284926,45.1498772],[19.8291202,45.1499022],[19.8291659,45.1499033],[19.8293467,45.1499077],[19.8299073,45.1499066],[19.8299118,45.1499066],[19.8303684,45.1499317],[19.8306021,45.1499693],[19.8309405,45.1500279],[19.831024,45.150043],[19.8311637,45.1500683],[19.8315096,45.1501681],[19.8317171,45.1503024],[19.8318715,45.150419],[19.831906,45.1504741],[19.831965,45.1505684],[19.8319592,45.1506437],[19.8319498,45.1507669],[19.8320036,45.1508251],[19.8320758,45.1509033],[19.8321746,45.1509329],[19.8321914,45.1509379],[19.8324399,45.1515505],[19.8324754,45.151638],[19.8324755,45.1516383],[19.8326034,45.1517799],[19.8327778,45.1518915],[19.8330502,45.1519146],[19.8334125,45.1518667],[19.833926,45.1516517],[19.8339716,45.1516326],[19.8346582,45.1513576],[19.8356177,45.1510228],[19.8356646,45.1510065],[19.8364284,45.1511348],[19.8370364,45.1512086],[19.8372829,45.1512648],[19.8375424,45.151324],[19.8375478,45.1513296],[19.8376381,45.1514233],[19.8378361,45.1514998],[19.8378507,45.1515054],[19.8379641,45.1517161],[19.8380449,45.1521663],[19.838048,45.1521977],[19.8380531,45.1522489],[19.8380731,45.1522726],[19.838149,45.1523627],[19.8382475,45.1524769],[19.8383364,45.1525784],[19.8385056,45.1528046],[19.8387864,45.1530175],[19.8391237,45.1534454],[19.8393248,45.153818],[19.8394179,45.1538704],[19.8396305,45.1542404],[19.839653,45.1545668],[19.8397035,45.1546445],[19.839565,45.1551969],[19.8395543,45.1552506],[19.8395527,45.1552584],[19.8398934,45.1552619],[19.8401016,45.1552271],[19.8407105,45.1550861],[19.8410704,45.1550088],[19.8410733,45.1550082],[19.8413421,45.155109],[19.8416122,45.1551661],[19.8416133,45.1551664],[19.8418795,45.1551935],[19.8421953,45.1552012],[19.8423625,45.1552052],[19.8428348,45.1552218],[19.8431441,45.1551926],[19.8434027,45.1551285],[19.8434028,45.1551285],[19.8436183,45.1550277],[19.8436186,45.1550276],[19.8436187,45.1550275],[19.8437201,45.1549801],[19.8437263,45.1549765],[19.8439169,45.1548629],[19.844342,45.1546023],[19.8443422,45.1546022],[19.8443429,45.1546018],[19.8443437,45.1546013],[19.8443972,45.1545685],[19.8445062,45.1545002],[19.8448481,45.1542861],[19.8449761,45.1542394],[19.8450847,45.1541998],[19.8452968,45.1541397],[19.8455732,45.1540963],[19.8462114,45.1540417],[19.8465835,45.1540133],[19.8465839,45.1540133],[19.8467402,45.1540013],[19.8467485,45.1539998],[19.8467488,45.1539998],[19.8470695,45.1539427],[19.8473025,45.1538534],[19.8476103,45.1536848],[19.8477758,45.1536417],[19.8478823,45.1536428],[19.8479625,45.1536845],[19.8479626,45.1536846],[19.8480035,45.1537058],[19.8481795,45.153966],[19.8483202,45.1541761],[19.8484869,45.1543178],[19.8487184,45.1544952],[19.8487498,45.1545061],[19.8489822,45.1545873],[19.8492415,45.154641],[19.8496363,45.154682],[19.849637,45.154682],[19.8496374,45.1546821],[19.8496375,45.1546821],[19.849643,45.1546827],[19.8496663,45.1546839],[19.8501095,45.154707],[19.8507445,45.1547362],[19.8509592,45.1547314],[19.8509599,45.1547314],[19.8510239,45.15473],[19.8512739,45.1546819],[19.851329,45.1546636],[19.8519998,45.1544411],[19.8522064,45.1544319],[19.8525598,45.1544891],[19.8531715,45.1546123],[19.8536253,45.1547167],[19.8538086,45.1547779],[19.8538089,45.154778],[19.8538091,45.1547781],[19.8539808,45.1548354],[19.8543035,45.1550003],[19.8547296,45.1552889],[19.8548921,45.1554192],[19.8550159,45.1555791],[19.8551118,45.1559303],[19.8551778,45.1562959],[19.8552913,45.1566858],[19.8553911,45.1568483],[19.8556122,45.1569931],[19.8556158,45.1569955],[19.8558566,45.1570509],[19.8564577,45.1570992],[19.8570639,45.1571194],[19.8575086,45.1571536],[19.8577957,45.1572049],[19.8582924,45.1573453],[19.858532,45.1574326],[19.8585368,45.1574343],[19.8586053,45.1574865],[19.8586735,45.1575385],[19.8586757,45.1575402],[19.8587699,45.1576461],[19.8589075,45.1579547],[19.8589474,45.1580443],[19.8590425,45.1582689],[19.8591211,45.1584547],[19.8591211,45.1584548],[19.8592203,45.1586297],[19.8593418,45.1587411],[19.8595038,45.1588248],[19.8596577,45.1588434],[19.8599402,45.158811],[19.8600178,45.1587689],[19.8602455,45.1586453],[19.8602494,45.1586432],[19.8606636,45.1583],[19.8607899,45.158186],[19.8609183,45.1580892],[19.861293,45.1577635],[19.8613173,45.1577424],[19.8613396,45.1577269],[19.8615973,45.1575478],[19.8617636,45.157453],[19.861973,45.1573739],[19.8622692,45.1572928],[19.8623256,45.1572836],[19.8626297,45.1572343],[19.8627615,45.1572433],[19.8628234,45.1572476],[19.8629796,45.1572827],[19.863131,45.1573593],[19.8632915,45.1574906],[19.8635303,45.1577795],[19.8636944,45.1579139],[19.8639201,45.1580124],[19.8640495,45.1580383],[19.8647537,45.1581794],[19.8648345,45.1581947],[19.8648354,45.1581949],[19.8653723,45.1582967],[19.8658657,45.1583863],[19.8664182,45.1585121],[19.8664616,45.1585172],[19.8665149,45.1585234],[19.8668391,45.1585341],[19.8669869,45.158525],[19.8669872,45.158525],[19.8671848,45.1585129],[19.8677121,45.1584204],[19.8679807,45.1583001],[19.8681888,45.1581687],[19.8685534,45.1578442],[19.868714,45.1577301],[19.8687615,45.1576964],[19.8689018,45.1576333],[19.869008,45.1576252],[19.8690101,45.1576251],[19.8690303,45.1576274],[19.8691518,45.1576418],[19.8691592,45.1576426],[19.869248,45.157705],[19.8693178,45.1577888],[19.8694606,45.1581825],[19.8695771,45.1583745],[19.8696759,45.1584596],[19.8697507,45.1585241],[19.8699424,45.1586079],[19.8701277,45.1586496],[19.8705277,45.1587396],[19.8710143,45.1588465],[19.8711842,45.1588725],[19.8714694,45.1588206],[19.8716556,45.1586512],[19.8719074,45.1583158],[19.8720199,45.1582193],[19.87215,45.1581267],[19.8722978,45.1580739],[19.8724436,45.158055],[19.8726425,45.1580689],[19.8729372,45.1581596],[19.8734619,45.1584064],[19.8738184,45.1585674],[19.8740423,45.1586657],[19.8741085,45.1587015],[19.8741829,45.1586063],[19.8742248,45.1586254],[19.8744898,45.1587461],[19.8746573,45.1587965],[19.8748969,45.1588486],[19.8750981,45.1589214],[19.875199,45.1588272],[19.8752935,45.1586749],[19.8753633,45.1586164],[19.8754494,45.1585443],[19.8759679,45.1580603],[19.8762095,45.1578874],[19.8764659,45.157733],[19.8765012,45.1577118],[19.8765247,45.1576977],[19.8766099,45.1576597],[19.8767547,45.1575951],[19.8769869,45.1574916],[19.8771472,45.1574273],[19.8777232,45.1572534],[19.8777388,45.1572487],[19.8777718,45.1572376],[19.8783393,45.1570466],[19.8791459,45.156784],[19.8796643,45.1566014],[19.8797349,45.1565765],[19.8803519,45.156356],[19.8808969,45.1561915],[19.8819614,45.1558424],[19.8823298,45.1557201],[19.8824782,45.1556681],[19.8824785,45.155668],[19.8825352,45.1556481],[19.882553,45.1556456],[19.8827072,45.1556243],[19.8831878,45.1555387],[19.8833669,45.1555069],[19.8840674,45.1554033],[19.8844683,45.1553459],[19.8846849,45.1553149],[19.8847166,45.1553075],[19.884777,45.1552935],[19.8852418,45.1552559],[19.8856195,45.155243],[19.8863303,45.155241],[19.8866586,45.1552595],[19.8870101,45.1552897],[19.8875677,45.1553867],[19.8880242,45.1554958],[19.8888115,45.1556507],[19.8890314,45.1556732],[19.8901985,45.1557251],[19.8902028,45.1557253],[19.8902118,45.1557226],[19.8907992,45.1556579],[19.8907995,45.1556583],[19.8909859,45.1558903],[19.8910322,45.1560072],[19.8910328,45.1563429],[19.8911273,45.1567177],[19.8911886,45.1571651],[19.8913767,45.157504],[19.8916632,45.157741],[19.8918106,45.1579605],[19.891836,45.1582521],[19.8920279,45.1584468],[19.8924325,45.1586079],[19.8925017,45.158729],[19.892681,45.1591588],[19.8927368,45.1595217],[19.8928349,45.1599623],[19.8929327,45.1601626],[19.8931312,45.1605901],[19.8931326,45.1607593],[19.8930559,45.160944],[19.8929733,45.1610629],[19.8926609,45.1613447],[19.8924472,45.161588],[19.8920948,45.1619705],[19.8919846,45.1621997],[19.8919306,45.1623619],[19.8920657,45.1626522],[19.8922143,45.1628175],[19.8925228,45.1629811],[19.8928105,45.163105],[19.8929578,45.1632565],[19.8930582,45.1633291],[19.8932292,45.1634908],[19.8935813,45.1638632],[19.893909,45.1641073],[19.8943878,45.1643809],[19.894601,45.1645799],[19.8948899,45.1648532],[19.8952309,45.1652235],[19.8955696,45.1655135],[19.8957403,45.1657312],[19.8958838,45.1660398],[19.8960423,45.1662735],[19.8963623,45.1666655],[19.8964459,45.1667818],[19.8965074,45.1669312],[19.8966889,45.1673294],[19.8967987,45.1674952],[19.8968262,45.1676747],[19.8966607,45.1680526],[19.8965988,45.1684985],[19.8964727,45.1689365],[19.8962598,45.1692935],[19.8961879,45.1694825],[19.8961754,45.169714],[19.8960736,45.1699644],[19.8960451,45.1700008],[19.8959451,45.170237],[19.895851,45.1704194],[19.8958385,45.170527],[19.8958499,45.1706401],[19.8958018,45.1707794],[19.8956694,45.171007],[19.8956321,45.1711271],[19.8956374,45.1712678],[19.8957145,45.1714344],[19.8958313,45.1716026],[19.895869,45.17171],[19.8960471,45.1718303],[19.8964964,45.1719152],[19.8966699,45.1719032],[19.8969241,45.172002],[19.8970647,45.1720458],[19.8972112,45.1721981],[19.8973,45.172251],[19.8973496,45.1722805],[19.8976148,45.1723906],[19.8977006,45.1724261],[19.8981718,45.1725749],[19.8982863,45.172611],[19.8984683,45.1726527],[19.8986268,45.1726448],[19.8989087,45.1726192],[19.8990638,45.1726195],[19.8992987,45.1726429],[19.8994625,45.1726858],[19.8996185,45.1727553],[19.8997868,45.1728148],[19.8999554,45.1728578],[19.9002002,45.1729008],[19.9005344,45.1729734],[19.9007814,45.1730333],[19.9010318,45.1730797],[19.9013165,45.1730713],[19.9014264,45.1730679],[19.9015604,45.1731263],[19.9016234,45.1731561],[19.9017812,45.1731431],[19.9018602,45.173211],[19.9020294,45.173342],[19.9021187,45.1734572],[19.902105,45.1735483],[19.9021235,45.1735778],[19.9021548,45.173808],[19.9022167,45.1740219],[19.9023103,45.1741972],[19.9025005,45.1743959],[19.9028255,45.1746983],[19.9028894,45.1748087],[19.9028384,45.1749418],[19.9030799,45.175118],[19.9033068,45.1753124],[19.903487,45.1754552],[19.9033363,45.1757603],[19.9032501,45.1759454],[19.9034934,45.1760279],[19.9035154,45.1762575],[19.903531,45.1764346],[19.9035681,45.176614],[19.9036944,45.1770802],[19.9036825,45.1771141],[19.9035606,45.1772934],[19.9035492,45.1773104],[19.9034565,45.177416],[19.9032819,45.1776044],[19.9030538,45.1780118],[19.9029821,45.1782723],[19.9030035,45.1785681],[19.9028981,45.1790015],[19.9029301,45.1794108],[19.9028975,45.1796193],[19.9028848,45.1798231],[19.9028819,45.180221],[19.9028981,45.1806659],[19.9029105,45.1808504],[19.9029808,45.1812063],[19.9029532,45.181404],[19.9028574,45.1815537],[19.9028,45.1818452],[19.9027722,45.1820559],[19.9027472,45.182235],[19.9026894,45.1826379],[19.9026889,45.182665],[19.9026398,45.182863],[19.9025568,45.1831724],[19.9024429,45.1835519],[19.9024065,45.1836701],[19.9022454,45.1841099],[19.9022311,45.1841444],[19.9021578,45.1843186],[19.9021652,45.1844786],[19.9022784,45.184796],[19.9022875,45.1848189],[19.9021817,45.1849879],[19.902167,45.1850029],[19.9021272,45.1850467],[19.9019883,45.1851975],[19.9019514,45.1852587],[19.9018627,45.1854044],[19.9018464,45.1854664],[19.9018,45.1856464],[19.9018127,45.1856886],[19.9018653,45.1858556],[19.9018994,45.1859376],[19.9019724,45.1861131],[19.9020443,45.1862635],[19.9022327,45.1863125],[19.9023744,45.1864255],[19.902613,45.186593],[19.9029146,45.1867502],[19.9029968,45.1868183],[19.9030506,45.1869232],[19.9031025,45.1870362],[19.9027653,45.1871992],[19.9026423,45.1872622],[19.9025121,45.1873408],[19.9024294,45.1874623],[19.902377,45.1875401],[19.9022804,45.1876815],[19.9021846,45.1879939],[19.9021655,45.1883276],[19.9021508,45.1883895],[19.9019759,45.1887584],[19.9019052,45.188924],[19.901872,45.1890345],[19.901813,45.1892522],[19.9017984,45.1893055],[19.9017455,45.1894966],[19.9017126,45.189551],[19.9016971,45.1898222],[19.9016461,45.1900366],[19.9019019,45.1901719],[19.9023421,45.190368],[19.9024855,45.1904327],[19.902988,45.1906475],[19.9029887,45.1906613],[19.9030487,45.1909273],[19.903078,45.1911008],[19.9031241,45.1912709],[19.9031954,45.1914508],[19.9033211,45.1917842],[19.9034274,45.1917957],[19.9037451,45.1921114],[19.9035419,45.192131],[19.903577,45.1924202],[19.903594,45.1926127],[19.9036019,45.1928193],[19.9036269,45.1929695],[19.9037036,45.1930374],[19.9036114,45.1930747],[19.9037899,45.1934726],[19.9038191,45.1935696],[19.903935,45.1939188],[19.9042773,45.1938969],[19.9043234,45.1940235],[19.9043534,45.1941662],[19.9045077,45.1944184],[19.9047641,45.1947283],[19.9049152,45.1949418],[19.9050069,45.1950491],[19.9051709,45.1952484],[19.9054062,45.1955498],[19.9055119,45.1955125],[19.9056264,45.1956788],[19.9057216,45.1958228],[19.9057688,45.1958892],[19.9058198,45.1959636],[19.9058988,45.1960795],[19.9059641,45.1961959],[19.9060846,45.1963453],[19.9063489,45.1966665],[19.9063903,45.196741],[19.9064401,45.196844],[19.9064578,45.1969169],[19.9064684,45.1969448],[19.9064578,45.1969982],[19.9063321,45.1971696],[19.90624,45.1972811],[19.9061722,45.1973747],[19.9061522,45.197426],[19.9060955,45.1975973],[19.9060754,45.1976126],[19.9061103,45.1976986],[19.9060839,45.1979112],[19.906062,45.1979302],[19.906054,45.1982328],[19.9060482,45.1982388],[19.9060716,45.1985537],[19.9061049,45.1987308],[19.9060935,45.1987765],[19.9061191,45.1989836],[19.9061474,45.1992474],[19.9061518,45.1992685],[19.9061871,45.1994222],[19.9062237,45.1995839],[19.9063023,45.2000491],[19.9063085,45.2002256],[19.9062598,45.2003519],[19.9062491,45.2003726],[19.9061653,45.2005974],[19.9061544,45.2006285],[19.9061112,45.2007239],[19.9061034,45.2007492],[19.9060554,45.2008505],[19.9059996,45.2009793],[19.9059388,45.2011245],[19.9058081,45.20147],[19.9057784,45.2016479],[19.9056823,45.2017212],[19.9054712,45.2018199],[19.9051944,45.2019418],[19.9050764,45.2019945],[19.905121,45.2020331],[19.905248,45.2022127],[19.9053477,45.2023214],[19.9053804,45.2023651],[19.9055758,45.2025033],[19.9054337,45.2025707],[19.9053292,45.202622],[19.9051778,45.202678],[19.904962,45.2027365],[19.9049044,45.202752],[19.9047438,45.2027836],[19.9046568,45.2028006],[19.9045102,45.2028141],[19.9042696,45.2027889],[19.9037619,45.2027587],[19.9035572,45.2027637],[19.903376,45.2028009],[19.9031985,45.2028468],[19.9030737,45.2028837],[19.9029752,45.2029129],[19.9029514,45.2029155],[19.9028549,45.2029258],[19.9028885,45.2027491],[19.9029573,45.2023175],[19.9029987,45.201953],[19.9025831,45.2019601],[19.9019074,45.2020155],[19.9016601,45.2020148],[19.9011523,45.2020243],[19.9011189,45.2020263],[19.9008666,45.2020326],[19.9004262,45.2020371],[19.9004067,45.2022171],[19.900411,45.2023065],[19.9004196,45.2023951],[19.9005163,45.2027498],[19.9005418,45.2029125],[19.900575,45.2030442],[19.9006422,45.2032264],[19.9008054,45.2036775],[19.9008132,45.2037259],[19.900895,45.203938],[19.9009133,45.2039784],[19.9009842,45.2041011],[19.900921,45.2041178],[19.9006768,45.20416],[19.9002674,45.2042185],[19.9000768,45.2042458],[19.8996905,45.2043114],[19.8993225,45.2043703],[19.8988466,45.204461],[19.8983875,45.2045541],[19.8982733,45.2045719],[19.8980269,45.2046042],[19.8978992,45.2046252],[19.8974664,45.204704],[19.8975614,45.2048534],[19.8976212,45.2049641],[19.8976782,45.2050271],[19.8977155,45.2051126],[19.8976624,45.2053899],[19.8977235,45.2054338],[19.897793,45.2055489],[19.8978624,45.2058648],[19.8978175,45.2058803],[19.8980454,45.2060334],[19.898312,45.2062654],[19.8988955,45.206626],[19.8989175,45.2066364],[19.8992173,45.2067693],[19.8994399,45.2069168],[19.8995371,45.2069768],[19.8996894,45.2071186],[19.8997135,45.207123],[19.8998388,45.2070907],[19.8999985,45.2070378],[19.9000952,45.2070241],[19.9002221,45.2070168],[19.9003555,45.2069924],[19.9007663,45.2068905],[19.9013539,45.2067462],[19.901406,45.2067442],[19.9014946,45.206799],[19.9015404,45.2068503],[19.9016381,45.2069846],[19.9017356,45.2071685],[19.9018546,45.2071874],[19.9020348,45.2072062],[19.9022416,45.2072101],[19.9023851,45.2072333],[19.9026984,45.2072843],[19.9027057,45.2072673],[19.9027769,45.2072888],[19.90279,45.2073037],[19.9029019,45.2073368],[19.9030057,45.2073606],[19.9032488,45.2074187],[19.9033137,45.2074328],[19.9034469,45.2074615],[19.9037137,45.2075241],[19.9037486,45.2075316],[19.9039315,45.2075797],[19.9039788,45.2076024],[19.9040419,45.2076328],[19.9040979,45.2076596],[19.9041687,45.2076936],[19.9043816,45.2077984],[19.9044499,45.2078468],[19.9044913,45.2078884],[19.9046311,45.208064],[19.9046941,45.2081389],[19.9047594,45.208214],[19.9048816,45.2083147],[19.9049074,45.2083362],[19.9050626,45.2085048],[19.9052071,45.2086864],[19.9052141,45.2086956],[19.9053924,45.2088522],[19.9054918,45.2089443],[19.9056339,45.2089989],[19.9059016,45.2090402],[19.9062586,45.2090499],[19.9062756,45.2090503],[19.9062856,45.209053],[19.9063082,45.209059],[19.9063215,45.2091097],[19.9063973,45.2094004],[19.9064314,45.2094465],[19.9064566,45.2096206],[19.9064621,45.209657],[19.9065223,45.2096781],[19.9065601,45.2096974],[19.9066858,45.2097834],[19.906854,45.209885],[19.9069843,45.2100634],[19.906999,45.2100835],[19.9071754,45.2103037],[19.9072453,45.2103907],[19.9073427,45.2105015],[19.9073597,45.2105269],[19.9074511,45.2106604],[19.9075759,45.2107875],[19.907844,45.2110356],[19.9080304,45.2111538],[19.9082673,45.2112894],[19.9086657,45.2115065],[19.908873,45.2116085],[19.9090234,45.2116916],[19.9092093,45.211872],[19.9093649,45.2121797],[19.9094053,45.2121926],[19.9094933,45.2122127],[19.9095538,45.2122881],[19.9096042,45.2124048],[19.9095833,45.2126176],[19.9096976,45.212884],[19.909793,45.2130958],[19.9098536,45.213216],[19.9098278,45.2134812],[19.9098435,45.2135379],[19.9100157,45.2136846],[19.9100808,45.2139811],[19.9102045,45.2140861],[19.910415,45.2141881],[19.9107396,45.2144851],[19.9109662,45.2146172],[19.9110276,45.2147348],[19.9110649,45.2148623],[19.9110277,45.21494],[19.9110437,45.2150176],[19.9111,45.2150696],[19.911304,45.2151759],[19.9113815,45.2152024],[19.9114156,45.215214],[19.9114526,45.2152268],[19.9115585,45.2152697],[19.9116496,45.2153317],[19.911821,45.2154848],[19.9118381,45.2154999],[19.9119986,45.2156384],[19.912069,45.215702],[19.9122873,45.2159001],[19.9122943,45.2159058],[19.9126055,45.216192],[19.9129145,45.2164699],[19.913068,45.2165991],[19.9133271,45.2168248],[19.9135846,45.2170617],[19.9137685,45.2172313],[19.9141085,45.217538],[19.9143111,45.2177146],[19.914535,45.2179154],[19.9147673,45.2181626],[19.9149708,45.2182999],[19.9152966,45.2185763],[19.9154268,45.2186776],[19.9155137,45.2187503],[19.9155978,45.2188061],[19.9156717,45.2188551],[19.9161879,45.2191608],[19.9177555,45.220089],[19.9254549,45.2244955],[19.9260613,45.2248399],[19.9284165,45.2263608],[19.9312941,45.2231737],[19.9328702,45.2210005],[19.9350865,45.2181475],[19.9362104,45.2168236],[19.9380426,45.2144339],[19.9402638,45.2119599],[19.9422264,45.2098813],[19.9445508,45.2077346],[19.9468698,45.2053197],[19.9508108,45.2072153],[19.9510471,45.2073288],[19.9511001,45.2073099],[19.9516106,45.2070354],[19.9521061,45.206756],[19.952622,45.2064964],[19.9531223,45.2062669],[19.9534902,45.2060709],[19.9540189,45.2058237],[19.9545287,45.2055972],[19.9547411,45.2055573],[19.9548374,45.2055029],[19.9549894,45.2054172],[19.9552885,45.2052485],[19.9556894,45.2048995],[19.9560777,45.2045433],[19.9564042,45.204158],[19.956593,45.2039471],[19.9568478,45.2036324],[19.957122,45.2033343],[19.9574734,45.2029722],[19.9574851,45.20296],[19.9576267,45.2030919],[19.9576509,45.2031157],[19.9579671,45.2034019],[19.9601158,45.2042847],[19.9619419,45.2043131],[19.9681067,45.2049738],[19.9681338,45.2049686],[19.9686118,45.2048423],[19.9691398,45.2046934],[19.9691624,45.2046902],[19.9692035,45.2046932],[19.9695306,45.204717],[19.9695841,45.2047209],[19.9701812,45.2049822],[19.9705954,45.205046],[19.9709993,45.2051126],[19.9715951,45.2051992],[19.9721063,45.2053149],[19.9730726,45.2054614],[19.9736394,45.205484],[19.9742196,45.2055179],[19.9748451,45.2055572],[19.9753642,45.2055767],[19.9758755,45.2055934],[19.9764151,45.2056185],[19.9771922,45.2056806],[19.9776988,45.2057792],[19.9782619,45.2059185],[19.9792188,45.2061085],[19.9794531,45.2061768],[19.9798394,45.2062408],[19.9805234,45.2063419],[19.9811375,45.2063038],[19.9816382,45.2062425],[19.9821224,45.20613],[19.9825173,45.2058841],[19.9829391,45.2054743],[19.9835468,45.2049477],[19.9839729,45.2046926],[19.984411,45.2044842],[19.9850252,45.2041658],[19.9858125,45.2037318],[19.9864534,45.2034413],[19.9868613,45.2032257],[19.9874848,45.2029196],[19.9880143,45.2026674],[19.9886489,45.2023684],[19.9891534,45.202091],[19.9895939,45.2019171],[19.9901038,45.2016519],[19.9908417,45.2013079],[19.9913635,45.2010384],[19.9919098,45.2008295],[19.9922751,45.2006387],[19.992994,45.200332],[19.9933889,45.2001346],[19.9942622,45.1997338],[19.9948722,45.1994209],[19.9955008,45.1991881],[19.9962602,45.198797],[19.9969679,45.1984954],[19.9975501,45.1983194],[19.997796,45.1982695],[19.998063,45.1982307],[19.998224,45.1982496],[19.9988501,45.1983053],[19.9994543,45.198422],[20.0000475,45.1985671],[20.0004991,45.1986724],[20.0011588,45.1987964],[20.0017567,45.1989078],[20.0024431,45.1990999],[20.0031462,45.1993338],[20.0036254,45.199494],[20.004212,45.1996663],[20.0048544,45.1998709],[20.0054449,45.2000357],[20.0060151,45.2002337],[20.0065527,45.2004764],[20.0070701,45.2007348],[20.0075824,45.2010114],[20.0080739,45.2012952],[20.0085767,45.2015776],[20.0090698,45.2018589],[20.0096088,45.2021158],[20.0100609,45.2023732],[20.0105798,45.2026911],[20.0110398,45.2029992],[20.0114532,45.2032036],[20.0130893,45.2034213],[20.0131598,45.2034339],[20.0132003,45.2034412],[20.0134453,45.2034853],[20.0134549,45.203487],[20.0134709,45.2034899],[20.0172127,45.2041634],[20.017234,45.2041748],[20.0172424,45.2041556],[20.0187382,45.2004733],[20.0187792,45.2003971],[20.018868,45.2002286],[20.0190341,45.199917],[20.0190809,45.1998288],[20.0190922,45.1998075],[20.021428,45.2019699],[20.0227768,45.2028309],[20.0227811,45.2028331],[20.0231218,45.2030123],[20.0244118,45.2035393],[20.0245192,45.2035832],[20.0258296,45.2041363],[20.0277646,45.204713],[20.0285618,45.2049217],[20.0290858,45.2050473],[20.0292441,45.2050612],[20.0297938,45.2051098],[20.0304227,45.2051232],[20.0310758,45.205056],[20.032206,45.2048197],[20.0330685,45.2045442],[20.0343011,45.2040215],[20.0350253,45.2036547],[20.0350855,45.2036243],[20.0364643,45.2027993],[20.0375856,45.2020898],[20.0399073,45.200225],[20.0413569,45.198924],[20.0426705,45.1977658],[20.043654,45.197093],[20.0448941,45.195944],[20.0450754,45.1958325],[20.0451699,45.1959112],[20.0453699,45.1960777],[20.0466319,45.1959265],[20.047011,45.1940316],[20.0466766,45.1912871],[20.0467432,45.1909227],[20.0465313,45.1897371],[20.0453138,45.1877844],[20.0445564,45.1860394],[20.0436585,45.1845675],[20.0427423,45.1832785],[20.0419068,45.1823816],[20.041004,45.1816717],[20.0374572,45.1792287],[20.0369148,45.1789078],[20.0364846,45.1786741],[20.0359273,45.1785431],[20.0354935,45.1784412],[20.0339265,45.1775689],[20.0332209,45.1771029],[20.0329047,45.1768311],[20.0325379,45.1765086],[20.0325256,45.1764931],[20.032308,45.1762191],[20.0320382,45.1760957],[20.0311449,45.175687],[20.0307219,45.1751932],[20.0302039,45.1747747],[20.0297636,45.1743664],[20.0295228,45.1740818],[20.029286,45.1737701],[20.029083,45.1733954],[20.0277432,45.170927],[20.0311364,45.1702412],[20.036,45.1702188],[20.0431357,45.1686198],[20.0482393,45.1676915],[20.0519018,45.1675648],[20.0546497,45.1675951],[20.0604436,45.168357],[20.0682531,45.1696896],[20.0735968,45.1697873],[20.0774273,45.1697837],[20.0793563,45.1697592],[20.081792,45.1696779],[20.0859962,45.1697224],[20.0861089,45.1719512],[20.0863662,45.1724894],[20.0865491,45.1731745],[20.0866469,45.1733246],[20.0900012,45.175702],[20.0919346,45.1774228],[20.0933736,45.1796054],[20.0944088,45.1807106],[20.095521,45.1821133],[20.0963011,45.1832798],[20.0963037,45.1832837],[20.096314,45.183299],[20.0963135,45.1832996],[20.0962708,45.1833329],[20.0960171,45.1835302],[20.0946491,45.1845946],[20.0950892,45.1868729],[20.0953437,45.1881901],[20.0955565,45.1892915],[20.0955571,45.1892947],[20.0955882,45.1894533],[20.095623,45.1896304],[20.095741,45.1902309],[20.0957672,45.190365],[20.0964499,45.1938406],[20.09651,45.1941464],[20.0965437,45.1943182],[20.0982088,45.2014497],[20.0982112,45.2014941],[20.0982132,45.2015314],[20.0982176,45.2016147],[20.0982322,45.201892],[20.09826,45.2024208],[20.0981795,45.2026591],[20.0980786,45.2043831],[20.0980731,45.2044769],[20.0980498,45.2047091],[20.0980496,45.2047118],[20.0978401,45.2068075],[20.097571,45.2095003],[20.0973051,45.2122809],[20.097207,45.2133073],[20.0971439,45.2139674],[20.0982118,45.216171],[20.0995135,45.2188805],[20.0995464,45.218949],[20.1001288,45.2201613],[20.1017723,45.2235898],[20.1025076,45.2252236],[20.103046,45.2264199],[20.1039995,45.2283996],[20.1044257,45.2292503],[20.1044523,45.2293035],[20.1044599,45.2293186],[20.1044595,45.2293186],[20.1043906,45.2293122],[20.1043749,45.2293107],[20.1034565,45.2292258],[20.1025382,45.2291409],[20.1016197,45.2290559],[20.1007013,45.2289709],[20.1002421,45.2289285],[20.0997829,45.228886],[20.0991935,45.2288315],[20.0986043,45.228777],[20.0985249,45.2287696],[20.0984369,45.2287614],[20.0982697,45.228746],[20.0981024,45.2287305],[20.0979351,45.228715],[20.0971877,45.2286458],[20.0969493,45.2286238],[20.096882,45.2286176],[20.0961346,45.2285484],[20.0947336,45.2284186],[20.0946169,45.2284078],[20.0935478,45.2283089],[20.0933801,45.2282933],[20.0922476,45.2281885],[20.091321,45.2281027],[20.090444,45.2280215],[20.0895669,45.2279402],[20.0888025,45.2278694],[20.0887409,45.2278637],[20.0886281,45.2278533],[20.0886286,45.227855],[20.0894549,45.2304165],[20.0900431,45.23224],[20.0900583,45.2322868],[20.0903467,45.2331808],[20.091197,45.2358164],[20.0911958,45.235821],[20.0911383,45.2360347],[20.0911375,45.2360379],[20.0910718,45.2360322],[20.0897241,45.2359164],[20.0891754,45.2358692],[20.0875048,45.2357256],[20.0873324,45.2357109],[20.0868821,45.2356722],[20.0866375,45.2356511],[20.0863288,45.2356246],[20.0862656,45.2356192],[20.0841719,45.2354392],[20.0800413,45.2350841],[20.0801498,45.2354305],[20.0802947,45.235893],[20.0803326,45.2360141],[20.080368,45.236127],[20.0805051,45.2365647],[20.0805767,45.2367935],[20.0806536,45.2370392],[20.0807527,45.2373555],[20.0808346,45.2376167],[20.0809605,45.2380188],[20.0810495,45.2383027],[20.0810936,45.2384439],[20.0811637,45.2386677],[20.0811794,45.2387175],[20.0812048,45.2387989],[20.0816025,45.2400686],[20.0816377,45.2401806],[20.0820629,45.2415381],[20.0822939,45.2422757],[20.0824615,45.2428107],[20.0826233,45.2433268],[20.0827443,45.243713],[20.0828775,45.2441382],[20.0828896,45.2444362],[20.0828999,45.2446855],[20.0829107,45.2449491],[20.0829328,45.2454906],[20.0829608,45.2461733],[20.0829823,45.2466987],[20.0829874,45.2468213],[20.0829893,45.2468669],[20.0830135,45.2474601],[20.0830348,45.2479783],[20.0830386,45.2480714],[20.0830496,45.2483401],[20.083061,45.2486196],[20.0830722,45.2488923],[20.0830785,45.2490462],[20.0830848,45.2491971],[20.0831121,45.2498648],[20.0831411,45.2505706],[20.0831476,45.2507297],[20.0831616,45.251071],[20.083164,45.2511311],[20.0831716,45.2513173],[20.0831929,45.2518358],[20.0832399,45.2529828],[20.0832567,45.2533918],[20.0832815,45.2539977],[20.0832899,45.2542039],[20.0832918,45.2542495],[20.0832283,45.2542459],[20.0830271,45.2542346],[20.0786828,45.253991],[20.0786456,45.2539885],[20.0785821,45.2539842],[20.0761171,45.2538177],[20.0738344,45.2536634],[20.0737711,45.253659],[20.0723572,45.2535616],[20.0714888,45.2535018],[20.0690809,45.253336],[20.0690176,45.2533316],[20.0688871,45.2533226],[20.064851,45.2530492],[20.0623977,45.2529215],[20.0622939,45.2529161],[20.0617277,45.2528866],[20.0614592,45.2528726],[20.0614594,45.2528732],[20.0583961,45.2698596],[20.05839,45.2698612],[20.0583891,45.2698679],[20.0583672,45.2700043],[20.0583586,45.270054],[20.0579695,45.2723032],[20.0579647,45.2723317],[20.057962,45.2723478],[20.0573825,45.2758127],[20.0572964,45.276194],[20.0567373,45.2792467],[20.0566065,45.2799606],[20.0565984,45.2800052],[20.0565614,45.2802069],[20.0564876,45.2806104],[20.0564223,45.2809666],[20.0561729,45.2823285],[20.0561544,45.2824293],[20.0561365,45.2825273],[20.0560764,45.2828551],[20.0560017,45.2832628],[20.0559121,45.2837525],[20.0558763,45.2839477],[20.0558596,45.2840383],[20.055828,45.2842118],[20.0557927,45.284404],[20.0557234,45.2847822],[20.0556592,45.2851325],[20.05558,45.285565],[20.0555463,45.2857488],[20.0554891,45.2860613],[20.055451,45.2862694],[20.0553988,45.2865542],[20.0553609,45.2867609],[20.0552932,45.2871304],[20.055266,45.287279],[20.0552387,45.2874278],[20.0551792,45.2877524],[20.0551638,45.2878365],[20.0550681,45.2883591],[20.0549935,45.2887661],[20.0549529,45.2889878],[20.0549122,45.2892095],[20.0548888,45.2893375],[20.0548138,45.2897468],[20.0547763,45.2899519],[20.0547553,45.2900661],[20.0547344,45.2901803],[20.0547135,45.2902944],[20.0546047,45.290888],[20.0545487,45.2911943],[20.0545111,45.2913995],[20.0544735,45.2916041],[20.0544654,45.2916488],[20.0543891,45.2920957],[20.0543623,45.2922533],[20.0543349,45.2924135],[20.0542937,45.2926555],[20.0542744,45.2927687],[20.0542037,45.2931829],[20.0541286,45.293623],[20.0541115,45.2937239],[20.0540359,45.2941664],[20.053993,45.294418],[20.0539511,45.294664],[20.0539252,45.2948156],[20.0538899,45.2950222],[20.053854,45.2952328],[20.0538215,45.2954235],[20.0538069,45.2955095],[20.0537997,45.2955517],[20.0537899,45.2956004],[20.0537812,45.2956416],[20.0537272,45.2956031],[20.0533656,45.2956225],[20.0490082,45.2958565],[20.0478331,45.2959198],[20.0434961,45.2961532],[20.0372756,45.2965253],[20.0321503,45.2968994],[20.027502,45.2972172],[20.0229971,45.2975487],[20.0229824,45.2975497],[20.0199123,45.2977652],[20.0196331,45.2977844],[20.019586,45.2977876],[20.0191868,45.2978156],[20.0181539,45.297888],[20.0178838,45.2979061],[20.0170913,45.2979624],[20.0170274,45.2979673],[20.0138872,45.2982061],[20.0119968,45.2983405],[20.0080734,45.2986194],[20.0080735,45.2986205],[20.0081036,45.2986184],[20.0062259,45.3084154],[20.006225,45.308416],[20.0062217,45.308416],[20.006215,45.3084574],[20.0061586,45.3088554],[20.0016731,45.3111618],[20.0015212,45.3112399],[19.9964357,45.3139513],[19.9914704,45.3165955],[19.9900796,45.3173336],[19.9876625,45.318624],[19.9772841,45.3241629],[19.9767641,45.3244404],[19.9733481,45.3262693],[19.9733473,45.3262697],[19.975888,45.3299658],[19.9761837,45.330425],[19.9764772,45.3308807],[19.9765203,45.3309477],[19.9765431,45.3309837],[19.9768127,45.3314108],[19.9772027,45.3320088],[19.9797938,45.3358672],[19.9798569,45.3359611],[19.9801039,45.3363295],[19.9804516,45.336848],[19.9805324,45.3369673],[19.9824722,45.3398578],[19.9826034,45.3400741],[19.9846496,45.3434437],[19.9848686,45.3438044],[19.9847182,45.3438406],[19.9846557,45.3438676],[19.9822114,45.3449238],[19.9791707,45.3462374],[19.9784143,45.3465693],[19.9746602,45.3482168],[19.9745469,45.3482627],[19.9743496,45.3483426],[19.9743125,45.3483577],[19.9742033,45.3484019],[19.9741929,45.3484063],[19.9698097,45.3502443],[19.9672322,45.351352],[19.9661392,45.3518217],[19.963921,45.3527749],[19.960711,45.3541263],[19.9601738,45.3543524],[19.9558386,45.3561754],[19.9488159,45.3577356],[19.9437832,45.3588609],[19.9398374,45.3597127],[19.9373883,45.3602478],[19.934138,45.3609578],[19.9318567,45.361463],[19.9285529,45.3621945],[19.9284841,45.3622099],[19.9283375,45.3622447],[19.9282989,45.3622538],[19.9282981,45.3622534],[19.9282938,45.3622507],[19.9282049,45.3621956],[19.9276025,45.3618158],[19.9248568,45.3600844],[19.9244127,45.3598043],[19.9230784,45.3589694],[19.9200817,45.3570942],[19.9157722,45.3543929],[19.9114659,45.3516991],[19.9073143,45.3490991],[19.9071659,45.3490061],[19.9071961,45.348973],[19.9072567,45.3489063],[19.9034078,45.3465211],[19.8995951,45.3441258],[19.8957399,45.3417473],[19.8919251,45.3393479],[19.8873181,45.336449],[19.8872833,45.3364239],[19.8872769,45.3364278],[19.8871811,45.3364866],[19.8871434,45.3365097],[19.8870215,45.3365846],[19.8869794,45.3366105],[19.8840163,45.3379992],[19.8839633,45.338024],[19.884501,45.3384007],[19.8832908,45.3390545],[19.8829699,45.3392279],[19.882918,45.3392559],[19.8828717,45.3392809],[19.8825054,45.3394789],[19.8816441,45.3399442],[19.8808363,45.3403806],[19.880334,45.3406519],[19.8798109,45.3409345],[19.8797592,45.3409624],[19.8796324,45.3410309],[19.8790102,45.341367],[19.8786838,45.3415434],[19.8785577,45.3414339],[19.8782788,45.3415743],[19.877586,45.3419231],[19.8770853,45.3421751],[19.8765943,45.3424223],[19.8758194,45.3428124],[19.8751663,45.3431412],[19.8751136,45.3431677],[19.8751097,45.3431697],[19.8748648,45.343293],[19.8733273,45.344067],[19.872786,45.3443394],[19.8722582,45.344605],[19.8717425,45.3448646],[19.8709668,45.3452551],[19.8702808,45.3456004],[19.8701763,45.345653],[19.8693377,45.3445534],[19.8591764,45.349863],[19.8591737,45.3498644],[19.8591415,45.3498813],[19.8608604,45.3521244],[19.8604358,45.3522521],[19.8542172,45.3520355],[19.8542924,45.3521924],[19.8546988,45.3530459],[19.8551105,45.3538962],[19.8555911,45.3548929],[19.8556846,45.354939],[19.8556982,45.3551305],[19.8559277,45.3556002],[19.8563494,45.3564503],[19.8567478,45.3573077],[19.8571332,45.3581494],[19.8575547,45.3590156],[19.8577911,45.3595246],[19.857852,45.3596203],[19.8579789,45.3597525],[19.8579825,45.3598666],[19.8583735,45.3607226],[19.8587935,45.3615772],[19.859066,45.3620869],[19.8594242,45.3628253],[19.8596724,45.3632412],[19.8597457,45.3636461],[19.859981,45.3641415],[19.8602553,45.3646281],[19.8605141,45.3651246],[19.8606366,45.3652422],[19.8606842,45.3652879],[19.8606622,45.3653739],[19.8612608,45.3666973],[19.8616645,45.3675483],[19.8617993,45.367824],[19.8620791,45.3684011],[19.8624522,45.3692564],[19.8629063,45.3702245],[19.8630176,45.3704088],[19.8628768,45.3704838],[19.8628192,45.3704978],[19.8626571,45.3705373],[19.8607526,45.3714612],[19.8599631,45.3718052],[19.8599352,45.3717835],[19.8599154,45.3717928],[19.8593814,45.3720464],[19.8590144,45.3722207],[19.8585929,45.3724232],[19.8583544,45.3725378],[19.8580184,45.3726992],[19.8573126,45.3730383],[19.8570113,45.3731831],[19.8566864,45.3733391],[19.8561389,45.3736022],[19.8556552,45.3738346],[19.8553142,45.3739984],[19.8552547,45.3740269],[19.8550772,45.3740999],[19.8549483,45.3741529],[19.854845,45.3742059],[19.8543936,45.3744723],[19.8543063,45.3745236],[19.8537348,45.3748592],[19.8518082,45.3759905],[19.8510463,45.376438],[19.8508248,45.3765616],[19.849738,45.3771681],[19.8485091,45.3778539],[19.8476506,45.378333],[19.8456367,45.3794568],[19.8454521,45.3795598],[19.8452401,45.3796699],[19.8451698,45.3797065],[19.8448948,45.3798494],[19.8410483,45.3818886],[19.837162,45.3839085],[19.8340935,45.3874916],[19.830643,45.3915509],[19.8299304,45.3927997],[19.8299063,45.392842],[19.8287596,45.3953404],[19.8286452,45.3955613],[19.828622,45.3956031],[19.8265197,45.3994049],[19.8258681,45.4014856],[19.8257918,45.4017293],[19.8250743,45.4041867],[19.8245738,45.4058983],[19.8235211,45.40954],[19.8225483,45.4109651],[19.8218583,45.4119759],[19.821613,45.4123353],[19.8202032,45.4143917],[19.8201354,45.4145133],[19.8199849,45.4147833],[19.8190023,45.4161952],[19.8182383,45.4172931],[19.8180079,45.4176242],[19.817664,45.4181183],[19.8175674,45.4185226],[19.8174954,45.4188235],[19.8174255,45.4191157],[19.8172681,45.4197739],[19.8171124,45.4204253],[19.8169527,45.4210929],[19.8168016,45.4217248],[19.8167133,45.422094],[19.8166978,45.422159],[19.816544,45.4228026],[19.8165321,45.4228526],[19.8163004,45.4238214],[19.8162432,45.424061],[19.8162383,45.4240978],[19.8158418,45.4241046],[19.8157523,45.4241037],[19.8019861,45.4251467],[19.8034487,45.4184872],[19.7988901,45.4190073],[19.7984297,45.4190598],[19.7956826,45.4193976],[19.7955064,45.4194192],[19.7954998,45.4194201],[19.7947512,45.4195121],[19.7938552,45.4196222],[19.7907473,45.4197213],[19.7873812,45.4202014],[19.7870397,45.4202501],[19.7855829,45.4204578],[19.7793071,45.4213935],[19.7757906,45.4219178],[19.7750714,45.422025],[19.7738002,45.4222447],[19.77361,45.4222415],[19.7735459,45.4222405],[19.770493,45.4221907],[19.7687501,45.4221698],[19.7670456,45.4221495],[19.7638616,45.4221343],[19.7579688,45.422106],[19.7531992,45.4215419],[19.7530489,45.4215242],[19.749815,45.4211416],[19.745296,45.4186427],[19.7451575,45.418566],[19.7405132,45.4159975],[19.7383111,45.4147795],[19.7377656,45.4144776],[19.7370793,45.4140981],[19.7363583,45.4136992],[19.7359918,45.4134965],[19.7359864,45.4135026],[19.7354943,45.4140641],[19.7354942,45.4140641],[19.7348629,45.4147054],[19.7340072,45.4155439],[19.7339083,45.4156408],[19.7336133,45.4159296],[19.7269387,45.4224631],[19.7269346,45.4224659],[19.7267139,45.422317],[19.7242232,45.4200328],[19.7230566,45.4189425],[19.7226092,45.4185242],[19.7224106,45.4183386],[19.7219941,45.4179494],[19.7211667,45.417184],[19.7211624,45.41718],[19.7210139,45.4175421],[19.7188394,45.4200496],[19.7187649,45.4201316],[19.7183893,45.4205454],[19.7164286,45.422705],[19.714359,45.4250116],[19.711086,45.4267082],[19.7100846,45.4272272],[19.7092457,45.4276782],[19.7066298,45.4290845],[19.7060504,45.429396],[19.7029705,45.4311101],[19.7028061,45.4312524],[19.7025049,45.4314629],[19.6965915,45.4307303],[19.6962792,45.4306769],[19.6920929,45.4301524],[19.6911454,45.4299994],[19.6910676,45.42998],[19.6871256,45.4289949],[19.6843069,45.4282851],[19.6830391,45.4279658],[19.6812466,45.4275404],[19.6795278,45.4270032],[19.6783443,45.4266333],[19.6756798,45.4258006],[19.6740922,45.425173],[19.6738956,45.4251255],[19.6713456,45.424509],[19.6677801,45.4238828],[19.6649734,45.4236899],[19.6649107,45.42368],[19.6648545,45.4236689],[19.6589939,45.4225804],[19.6548008,45.4217994],[19.6534333,45.4215446],[19.6508188,45.4200216],[19.6491975,45.4190771],[19.6449651,45.4166023],[19.6448419,45.416438],[19.644839,45.4164341],[19.6425257,45.4133276],[19.6403069,45.4103439],[19.6375998,45.4066832],[19.6363019,45.4049341],[19.6343499,45.4023054],[19.6343218,45.4022638],[19.634319,45.4022597],[19.6343649,45.402225],[19.6343653,45.4022247],[19.6437548,45.3950478],[19.6474141,45.3923673],[19.649444,45.3897163],[19.6494996,45.3895588],[19.6532962,45.3846676],[19.6547883,45.382767],[19.6550935,45.3823784],[19.6557171,45.3815235],[19.6574442,45.3791554],[19.6590443,45.3769525],[19.6614044,45.3737026],[19.6685233,45.3640324],[19.6685405,45.3639545],[19.6686795,45.363325],[19.6711492,45.3523177],[19.6717891,45.3497471],[19.6718999,45.3495102],[19.6721341,45.3490096],[19.6737025,45.3458856],[19.6740362,45.3452013],[19.674314,45.3446318],[19.6745305,45.343724],[19.6741439,45.3429848],[19.6735991,45.3419432],[19.6730944,45.3409056],[19.6727802,45.3402596],[19.6728061,45.3402429],[19.6728239,45.3402315],[19.6728196,45.3402195],[19.6728089,45.3401894],[19.6728083,45.3401809],[19.6726609,45.3397875],[19.6722168,45.338602],[19.6719117,45.338128],[19.6717212,45.337832],[19.6705842,45.3357091],[19.6706481,45.3355014],[19.6746705,45.3276965],[19.6761781,45.3247706],[19.6749957,45.3206344],[19.6746428,45.3203504],[19.6735687,45.3169842],[19.673151,45.3157112],[19.6729227,45.3150152],[19.6725767,45.3145249],[19.6721913,45.3139786],[19.6720868,45.3138452],[19.6720867,45.3138451],[19.6695827,45.3101114],[19.6629226,45.3119608],[19.6607902,45.3125422],[19.6576813,45.3133896],[19.6551442,45.3140827],[19.652568,45.3147864],[19.6419713,45.3176674],[19.6346479,45.3196643],[19.6310689,45.32064],[19.6302862,45.3213923],[19.6295392,45.3214641],[19.6257816,45.3217753],[19.6257815,45.3217753],[19.6257309,45.3214566],[19.625706,45.3212997],[19.6240508,45.3214822],[19.6202612,45.3219001],[19.6202609,45.3219001],[19.6212567,45.3178465],[19.6224039,45.3132592],[19.6229747,45.3099884],[19.6252447,45.3059003],[19.625328,45.305757],[19.6262675,45.3041409],[19.6264577,45.3038207],[19.6278707,45.3013413],[19.6292699,45.2993884],[19.6304099,45.2977971],[19.6304577,45.2955134],[19.6304474,45.2955132],[19.6304472,45.2955132],[19.6046053,45.2950606],[19.6046052,45.2950606],[19.6034215,45.2948477],[19.6026388,45.2950775],[19.6026371,45.2950775],[19.6001071,45.2950846],[19.6000118,45.2950853],[19.6000059,45.2950853],[19.6000116,45.2950122],[19.6001841,45.2912619],[19.6001933,45.2910619],[19.6001946,45.2910484],[19.6005458,45.2873565],[19.6009452,45.2834546],[19.6013221,45.2802618],[19.6013297,45.2801977],[19.6013605,45.2800125],[19.6013957,45.279808],[19.601409,45.2797261],[19.6018954,45.275943],[19.602166,45.2737863],[19.6021784,45.2736998],[19.6024704,45.2714118],[19.6026389,45.268414],[19.6027955,45.2656346],[19.6027908,45.2656324],[19.5989292,45.2638897],[19.5981615,45.2635432],[19.5977027,45.2633864],[19.5934528,45.2619338],[19.5874331,45.2597744],[19.5869483,45.2596005],[19.5869444,45.2595992],[19.586641,45.2595008],[19.5863907,45.2594167],[19.5854993,45.258756],[19.5852967,45.2586055],[19.5837423,45.2574529],[19.5836093,45.2573543],[19.5793193,45.2541727],[19.5791402,45.2540385],[19.5784595,45.2535273],[19.5755114,45.2513137],[19.575348,45.2511906],[19.5736224,45.2498948],[19.5734302,45.2497508],[19.5728743,45.2493409],[19.5727946,45.2492819],[19.5727649,45.2492599],[19.5726867,45.2492021],[19.5716345,45.2484262],[19.5715626,45.2483732],[19.5693707,45.2467566],[19.5692933,45.2466993],[19.5668037,45.2448633],[19.5667364,45.2448135],[19.5657759,45.2441052],[19.5628301,45.2419315],[19.5627775,45.2418929],[19.5626714,45.2418149],[19.561782,45.2411588],[19.561736,45.2411245],[19.5609787,45.2405659],[19.5588718,45.2390113],[19.5579785,45.2383521],[19.5570852,45.2376929],[19.5567177,45.2374217],[19.5563618,45.2371591]]]]},"properties":{"admin_level":"7","boundary":"administrative","int_name":"Grad Novi Sad","name":"Град Нови Сад","name:cnr":"Grad Novi Sad","name:cnr-Cyrl":"Град Нови Сад","name:de":"Stadt Neusatz","name:en":"City of Novi Sad","name:hu":"Újvidék város","name:pl":"Nowy Sad","name:sk":"Mesto Nový Sad","name:sr":"Град Нови Сад","name:sr-Latn":"Grad Novi Sad","name:zh":"諾維薩德市","name:zh-Hans":"诺维萨德市","name:zh-Hant":"諾維薩德市","population":"368967","population:census:2022":"368967","population:date":"2022","ref:RS:grad":"89010","source:population":"RZS","wikidata":"Q16084152","wikipedia":"sr:Град Нови Сад"}}
]}
